[{"OBJECT_NAME":"STARLINK-30892","OBJECT_ID":"2023-177R","EPOCH":"2026-03-09T22:00:01.999584","MEAN_MOTION":15.26754133,"ECCENTRICITY":0.0001698,"INCLINATION":43.0009,"RA_OF_ASC_NODE":349.0843,"ARG_OF_PERICENTER":264.5012,"MEAN_ANOMALY":141.2544,"EPHEMERIS_TYPE":0,"CLASSIFICATION_TYPE":"U","NORAD_CAT_ID":58366,"ELEMENT_SET_NO":999,"REV_AT_EPOCH":578,"BSTAR":-0.00044717978,"MEAN_MOTION_DOT":-0.0001224,"MEAN_MOTION_DDOT":0},{"OBJECT_NAME":"GEOSCAN 6 (RS92S6)","OBJECT_ID":"2025-155D","EPOCH":"2026-03-09T21:52:39.201312","MEAN_MOTION":15.27985277,"ECCENTRICITY":0.00087677,"INCLINATION":97.4466,"RA_OF_ASC_NODE":37.2933,"ARG_OF_PERICENTER":153.7679,"MEAN_ANOMALY":206.4006,"EPHEMERIS_TYPE":0,"CLASSIFICATION_TYPE":"U","NORAD_CAT_ID":64879,"ELEMENT_SET_NO":999,"REV_AT_EPOCH":6559,"BSTAR":0.00053762354,"MEAN_MOTION_DOT":0.00014633,"MEAN_MOTION_DDOT":0}]
